[
    {
        "CCSDS_OMM_VERS": "3.0",
        "COMMENT": "GENERATED VIA SPACE-TRACK.ORG API",
        "CREATION_DATE": "2025-02-12T17:50:04",
        "ORIGINATOR": "18 SPCS",
        "OBJECT_NAME": "BD-20",
        "OBJECT_ID": "2015-053A",
        "CENTER_NAME": "EARTH",
        "REF_FRAME": "TEME",
        "TIME_SYSTEM": "UTC",
        "MEAN_ELEMENT_THEORY": "SGP4",
        "EPOCH": "2025-02-12T02:05:38.628096",
        "MEAN_MOTION": "1.00251841",
        "ECCENTRICITY": "0.00521280",
        "INCLINATION": "49.9805",
        "RA_OF_ASC_NODE": "264.5883",
        "ARG_OF_PERICENTER": "186.8108",
        "MEAN_ANOMALY": "174.8851",
        "EPHEMERIS_TYPE": "0",
        "CLASSIFICATION_TYPE": "U",
        "NORAD_CAT_ID": "40938",
        "ELEMENT_SET_NO": "999",
        "REV_AT_EPOCH": "3444",
        "BSTAR": "0.00000000000000",
        "MEAN_MOTION_DOT": "-0.00000066",
        "MEAN_MOTION_DDOT": "0.0000000000000",
        "SEMIMAJOR_AXIS": "42170.324",
        "PERIOD": "1436.383",
        "APOAPSIS": "36012.014",
        "PERIAPSIS": "35572.363",
        "OBJECT_TYPE": "PAYLOAD",
        "RCS_SIZE": "LARGE",
        "COUNTRY_CODE": "PRC",
        "LAUNCH_DATE": "2015-09-29",
        "SITE": "XSC",
        "DECAY_DATE": null,
        "FILE": "4638714",
        "GP_ID": "280552706",
        "TLE_LINE0": "0 BD-20",
        "TLE_LINE1": "1 40938U 15053A   25043.08725264 -.00000066  00000-0  00000-0 0  9999",
        "TLE_LINE2": "2 40938  49.9805 264.5883 0052128 186.8108 174.8851  1.00251841 34448"
    }
]